TRANSPORTER-12 OBJECT F 
1 62614U 25009F   26068.76753411  .00324599  00000+0  22214-2 0  9995
2 62614  97.3860 159.0379 0006077 265.7860  94.2710 15.73813521 64258
STARLINK-11590 [DTC]    
1 63112U 25039J   26068.51860741  .00353463  00000+0  26459-2 0  9997
2 63112  43.0006 238.3144 0002447 298.2895  61.7726 15.70810558 59589
